ONEWEB-0365             
1 49291U 21090N   26196.31473624  .00000104  00000+0  22686-3 0  9992
2 49291  87.9192 299.3674 0002079 102.5221 257.6144 13.19726473230135
ONEWEB-0366             
1 49292U 21090P   26196.37112424  .00000129  00000+0  31473-3 0  9998
2 49292  87.8968 284.0913 0002007  98.4754 261.6603 13.14502510231267
ONEWEB-0367             
1 49293U 21090Q   26196.26892448  .00000036  00000+0  55914-4 0  9992
2 49293  87.9186 268.8456 0002212 102.5739 257.5641 13.20772971233536
ONEWEB-0368             
1 49294U 21090R   26196.24284443  .00000068  00000+0  13539-3 0  9992
2 49294  87.9174 268.8581 0001629 117.7085 242.4214 13.20771746234681
ONEWEB-0369             
1 49295U 21090S   26196.30999822  .00000029  00000+0  40951-4 0  9990
2 49295  87.9187 299.3737 0001993 102.9507 257.1849 13.19726292230123
ONEWEB-0370             
1 49296U 21090T   26196.20243413 -.00000017  00000+0 -74944-4 0  9996
2 49296  87.9184 268.8578 0002303  94.9379 265.2018 13.20772103233561
ONEWEB-0371             
1 49297U 21090U   26196.31789415  .00000090  00000+0  19336-3 0  9998
2 49297  87.9191 299.3665 0002109 101.6916 258.4454 13.19725424230166
ONEWEB-0372             
1 49298U 21090V   26196.26793986 -.00000010  00000+0 -57258-4 0  9991
2 49298  87.9187 268.8467 0002087 100.4549 259.6819 13.20769566233547
ONEWEB-0373             
1 49299U 21090W   26196.59635674  .00000008  00000+0 -12964-4 0  9998
2 49299  87.9183 268.7805 0002083  96.3456 263.7915 13.20772995234774
ONEWEB-0374             
1 49300U 21090X   26196.28230625 -.00000104  00000+0 -31577-3 0  9992
2 49300  87.8968 284.1007 0001552  88.5962 271.5345 13.14502893231253
ONEWEB-0375             
1 49301U 21090Y   26196.20579099  .00000092  00000+0  19320-3 0  9992
2 49301  87.9187 268.8511 0001669  86.0959 274.0365 13.20773467234229
ONEWEB-0376             
1 49302U 21090Z   26196.31630677  .00000071  00000+0  14544-3 0  9995
2 49302  87.9191 299.3665 0002072 105.6381 254.4981 13.19726516230166
ONEWEB-0377             
1 49303U 21090AA  26196.26821972 -.00000011  00000+0 -59104-4 0  9998
2 49303  87.9187 268.8406 0001936  94.7820 265.3534 13.20773309234220
ONEWEB-0378             
1 49304U 21090AB  26196.59146224  .00000008  00000+0 -11437-4 0  9997
2 49304  87.9181 268.7799 0001908  97.9499 262.1851 13.20771847233530
ONEWEB-0379             
1 49305U 21090AC  26196.27755469 -.00000155  00000+0 -45152-3 0  9994
2 49305  87.8969 284.1118 0001904  99.4492 260.6853 13.14502280231255
ONEWEB-0380             
1 49306U 21090AD  26196.31315835  .00000066  00000+0  13376-3 0  9991
2 49306  87.9186 299.3704 0002001  95.1426 264.9936 13.19726425230135
ONEWEB-0381             
1 49307U 21090AE  26196.18894492 -.00000241  00000+0 -62559-3 0  9992
2 49307  87.9188 268.8610 0001827  95.1435 264.9907 13.20771346233528
ONEWEB-0382             
1 49308U 21090AF  26196.17550092  .00000039  00000+0  63998-4 0  9999
2 49308  87.9185 268.8577 0001781  97.1549 262.9787 13.20771910233515
ONEWEB-0383             
1 49309U 21090AG  26196.27121142 -.00000154  00000+0 -45114-3 0  9990
2 49309  87.8974 284.1052 0001870 101.0477 259.0863 13.14502783231281
ONEWEB-0384             
1 49310U 21090AH  26196.23900913  .00000060  00000+0  11641-3 0  9991
2 49310  87.9188 268.8890 0001585  99.3412 260.7901 13.20813947233537
ONEWEB-0385             
1 49311U 21090AJ  26196.24451118  .00000039  00000+0  62894-4 0  9994
2 49311  87.9184 268.8494 0001873  96.5886 263.5461 13.20769514233507
ONEWEB-0386             
1 49312U 21090AK  26196.26133883  .00000016  00000+0  68692-5 0  9991
2 49312  87.9190 268.8379 0001789  98.1293 262.0044 13.20773214233528
ONEWEB-0387             
1 49313U 21090AL  26196.24619304  .00000089  00000+0  18785-3 0  9993
2 49313  87.9176 268.8596 0001993  88.3503 271.7859 13.20769990233523
ONEWEB-0388             
1 49314U 21090AM  26196.30841667  .00000104  00000+0  22780-3 0  9998
2 49314  87.9184 299.3694 0001882 100.1292 260.0053 13.19727089230127
ONEWEB-0389             
1 50469U 21132A   26196.44696069  .00000057  00000+0  11246-3 0  9999
2 50469  87.9145   0.2455 0001719  83.0236 277.1091 13.17650746221806
ONEWEB-0390             
1 50470U 21132B   26196.44864788  .00000072  00000+0  15118-3 0  9995
2 50470  87.9145   0.2461 0002081  91.1953 268.9417 13.17650757221806
ONEWEB-0391             
1 50471U 21132C   26196.45033562  .00000014  00000+0  40363-5 0  9993
2 50471  87.9147   0.2557 0002003  69.2131 290.9215 13.17650841221808
ONEWEB-0392             
1 50472U 21132D   26196.48071458 -.00000024  00000+0 -95528-4 0  9998
2 50472  87.9153   0.2204 0001766  80.4236 279.7095 13.17650752221847
ONEWEB-0393             
1 50473U 21132E   26196.45625507  .00000032  00000+0  49865-4 0  9996
2 50473  87.9143   0.2400 0001808  87.3574 272.7764 13.17648523221831
ONEWEB-0394             
1 50474U 21132F   26196.40004483  .00000063  00000+0  12739-3 0  9999
2 50474  87.9196 329.8325 0001749  97.5009 262.6322 13.18684680225316
