OBJECT_NAME,OBJECT_ID,EPOCH,MEAN_MOTION,ECCENTRICITY,INCLINATION,RA_OF_ASC_NODE,ARG_OF_PERICENTER,MEAN_ANOMALY,EPHEMERIS_TYPE,CLASSIFICATION_TYPE,NORAD_CAT_ID,ELEMENT_SET_NO,REV_AT_EPOCH,BSTAR,MEAN_MOTION_DOT,MEAN_MOTION_DDOT
ONEWEB-0365,2021-090N,2026-07-15T07:33:13.211136,13.19726473,.00020796,87.9192,299.3674,102.5221,257.6144,0,U,49291,999,23013,.22685842E-3,.104E-5,0
ONEWEB-0366,2021-090P,2026-07-15T08:54:25.134336,13.14502510,.00020072,87.8968,284.0913,98.4754,261.6603,0,U,49292,999,23126,.31473395E-3,.129E-5,0
ONEWEB-0367,2021-090Q,2026-07-15T06:27:15.075072,13.20772971,.00022121,87.9186,268.8456,102.5739,257.5641,0,U,49293,999,23353,.55914373E-4,.36E-6,0
ONEWEB-0368,2021-090R,2026-07-15T05:49:41.758752,13.20771746,.00016297,87.9174,268.8581,117.7085,242.4214,0,U,49294,999,23468,.13539173E-3,.68E-6,0
ONEWEB-0369,2021-090S,2026-07-15T07:26:23.846208,13.19726292,.00019932,87.9187,299.3737,102.9507,257.1849,0,U,49295,999,23012,.40951398E-4,.29E-6,0
ONEWEB-0370,2021-090T,2026-07-15T04:51:30.308832,13.20772103,.00023034,87.9184,268.8578,94.9379,265.2018,0,U,49296,999,23356,-.74944089E-4,-.17E-6,0
ONEWEB-0371,2021-090U,2026-07-15T07:37:46.054560,13.19725424,.00021093,87.9191,299.3665,101.6916,258.4454,0,U,49297,999,23016,.19336042E-3,.9E-6,0
ONEWEB-0372,2021-090V,2026-07-15T06:25:50.003904,13.20769566,.00020873,87.9187,268.8467,100.4549,259.6819,0,U,49298,999,23354,-.57257787E-4,-.1E-6,0
ONEWEB-0373,2021-090W,2026-07-15T14:18:45.222336,13.20772995,.00020833,87.9183,268.7805,96.3456,263.7915,0,U,49299,999,23477,-.12963818E-4,.8E-7,0
ONEWEB-0374,2021-090X,2026-07-15T06:46:31.260000,13.14502893,.00015524,87.8968,284.1007,88.5962,271.5345,0,U,49300,999,23125,-.31576979E-3,-.104E-5,0
ONEWEB-0375,2021-090Y,2026-07-15T04:56:20.341536,13.20773467,.00016695,87.9187,268.8511,86.0959,274.0365,0,U,49301,999,23422,.19319649E-3,.92E-6,0
ONEWEB-0376,2021-090Z,2026-07-15T07:35:28.904928,13.19726516,.00020721,87.9191,299.3665,105.6381,254.4981,0,U,49302,999,23016,.14544205E-3,.71E-6,0
ONEWEB-0377,2021-090AA,2026-07-15T06:26:14.183808,13.20773309,.00019366,87.9187,268.8406,94.7820,265.3534,0,U,49303,999,23422,-.59104467E-4,-.11E-6,0
ONEWEB-0378,2021-090AB,2026-07-15T14:11:42.337536,13.20771847,.00019082,87.9181,268.7799,97.9499,262.1851,0,U,49304,999,23353,-.11436969E-4,.8E-7,0
ONEWEB-0379,2021-090AC,2026-07-15T06:39:40.725216,13.14502280,.00019042,87.8969,284.1118,99.4492,260.6853,0,U,49305,999,23125,-.4515233E-3,-.155E-5,0
ONEWEB-0380,2021-090AD,2026-07-15T07:30:56.881440,13.19726425,.00020012,87.9186,299.3704,95.1426,264.9936,0,U,49306,999,23013,.13375816E-3,.66E-6,0
ONEWEB-0381,2021-090AE,2026-07-15T04:32:04.841088,13.20771346,.00018278,87.9188,268.8610,95.1435,264.9907,0,U,49307,999,23352,-.62559215E-3,-.241E-5,0
ONEWEB-0382,2021-090AF,2026-07-15T04:12:43.279488,13.20771910,.00017817,87.9185,268.8577,97.1549,262.9787,0,U,49308,999,23351,.63997564E-4,.39E-6,0
ONEWEB-0383,2021-090AG,2026-07-15T06:30:32.666688,13.14502783,.00018706,87.8974,284.1052,101.0477,259.0863,0,U,49309,999,23128,-.4511379E-3,-.154E-5,0
ONEWEB-0384,2021-090AH,2026-07-15T05:44:10.388832,13.20813947,.00015853,87.9188,268.8890,99.3412,260.7901,0,U,49310,999,23353,.11641491E-3,.6E-6,0
ONEWEB-0385,2021-090AJ,2026-07-15T05:52:05.765952,13.20769514,.00018734,87.9184,268.8494,96.5886,263.5461,0,U,49311,999,23350,.62893534E-4,.39E-6,0
ONEWEB-0386,2021-090AK,2026-07-15T06:16:19.674912,13.20773214,.00017896,87.9190,268.8379,98.1293,262.0044,0,U,49312,999,23352,.6869213E-5,.16E-6,0
ONEWEB-0387,2021-090AL,2026-07-15T05:54:31.078656,13.20769990,.00019934,87.9176,268.8596,88.3503,271.7859,0,U,49313,999,23352,.1878513E-3,.89E-6,0
ONEWEB-0388,2021-090AM,2026-07-15T07:24:07.200288,13.19727089,.00018824,87.9184,299.3694,100.1292,260.0053,0,U,49314,999,23012,.2277969E-3,.104E-5,0
ONEWEB-0389,2021-132A,2026-07-15T10:43:37.403616,13.17650746,.00017197,87.9145,0.2455,83.0236,277.1091,0,U,50469,999,22180,.11245562E-3,.57E-6,0
ONEWEB-0390,2021-132B,2026-07-15T10:46:03.176832,13.17650757,.00020812,87.9145,0.2461,91.1953,268.9417,0,U,50470,999,22180,.1511829E-3,.72E-6,0
ONEWEB-0391,2021-132C,2026-07-15T10:48:28.997568,13.17650841,.0002003,87.9147,0.2557,69.2131,290.9215,0,U,50471,999,22180,.4036298E-5,.14E-6,0
ONEWEB-0392,2021-132D,2026-07-15T11:32:13.739712,13.17650752,.00017668,87.9153,0.2204,80.4236,279.7095,0,U,50472,999,22184,-.95528491E-4,-.24E-6,0
ONEWEB-0393,2021-132E,2026-07-15T10:57:00.438048,13.17648523,.00018085,87.9143,0.2400,87.3574,272.7764,0,U,50473,999,22183,.49864644E-4,.32E-6,0
ONEWEB-0394,2021-132F,2026-07-15T09:36:03.873312,13.18684680,.00017493,87.9196,329.8325,97.5009,262.6322,0,U,50474,999,22531,.12739135E-3,.63E-6,0
